GPS BIIF-3  (PRN 24)    
1 38833U 12053A   17346.18674750 -.00000069  00000-0  00000+0 0  9990
2 38833  54.0483 271.2287 0063584  26.1983 334.1380  2.00564258 37986
